{"fetched_at":"2026-07-16T06:43:17.516Z","source":"https://celestrak.org/NORAD/elements/gp.php?NAME=SENTINEL&FORMAT=JSON","constellation":"sentinel-3","records":[{"OBJECT_NAME":"SENTINEL-3A","OBJECT_ID":"2016-011A","EPOCH":"2026-07-15T21:35:31.818912","CLASSIFICATION_TYPE":"U","MEAN_MOTION":14.26739869,"ECCENTRICITY":0.00013578,"INCLINATION":98.6237,"RA_OF_ASC_NODE":263.8689,"ARG_OF_PERICENTER":89.6135,"MEAN_ANOMALY":270.5201,"EPHEMERIS_TYPE":0,"NORAD_CAT_ID":41335,"ELEMENT_SET_NO":999,"REV_AT_EPOCH":54215,"BSTAR":0.000037625562,"MEAN_MOTION_DOT":4.7e-7,"MEAN_MOTION_DDOT":0},{"OBJECT_NAME":"SENTINEL-3B","OBJECT_ID":"2018-039A","EPOCH":"2026-07-15T19:15:52.126560","CLASSIFICATION_TYPE":"U","MEAN_MOTION":14.26736422,"ECCENTRICITY":0.00011538,"INCLINATION":98.6236,"RA_OF_ASC_NODE":263.9224,"ARG_OF_PERICENTER":119.6296,"MEAN_ANOMALY":240.5,"EPHEMERIS_TYPE":0,"NORAD_CAT_ID":43437,"ELEMENT_SET_NO":999,"REV_AT_EPOCH":42820,"BSTAR":0.000035746444,"MEAN_MOTION_DOT":4.3e-7,"MEAN_MOTION_DDOT":0}]}
